[
  {
    "OBJECT_NAME": "STARLINK-2705",
    "OBJECT_ID": "21044AL",
    "EPOCH": "2025-11-11T04:36:56.725344",
    "MEAN_MOTION": 15.06412995,
    "ECCENTRICITY": 0.0001474,
    "INCLINATION": 53.0545,
    "RA_OF_ASC_NODE": 283.5729,
    "ARG_OF_PERICENTER": 87.8221,
    "MEAN_ANOMALY": 272.2936,
    "EPHEMERIS_TYPE": 0,
    "CLASSIFICATION_TYPE": "U",
    "NORAD_CAT_ID": 48672,
    "ELEMENT_SET_NO": 999,
    "REV_AT_EPOCH": 24598,
    "BSTAR": 0.00046786,
    "MEAN_MOTION_DOT": 6.696e-05,
    "MEAN_MOTION_DDOT": 0.0,
    "TLE_LINE1": "1 48672U 21044AL  25315.19232321  .00006696  00000+0  46786-3 0  9997",
    "TLE_LINE2": "2 48672  53.0545 283.5729 0001474  87.8221 272.2936 15.06412995245982",
    "COMMENT": "Grouped by shell and plane from TLE"
  },
  {
    "OBJECT_NAME": "STARLINK-2711",
    "OBJECT_ID": "21044AM",
    "EPOCH": "2025-11-11T04:31:38.448480",
    "MEAN_MOTION": 15.06389859,
    "ECCENTRICITY": 0.0001353,
    "INCLINATION": 53.0554,
    "RA_OF_ASC_NODE": 283.5866,
    "ARG_OF_PERICENTER": 91.0347,
    "MEAN_ANOMALY": 269.0797,
    "EPHEMERIS_TYPE": 0,
    "CLASSIFICATION_TYPE": "U",
    "NORAD_CAT_ID": 48673,
    "ELEMENT_SET_NO": 999,
    "REV_AT_EPOCH": 24598,
    "BSTAR": 6.616200000000001e-05,
    "MEAN_MOTION_DOT": 7.04e-06,
    "MEAN_MOTION_DDOT": 0.0,
    "TLE_LINE1": "1 48673U 21044AM  25315.18863945  .00000704  00000+0  66162-4 0  9994",
    "TLE_LINE2": "2 48673  53.0554 283.5866 0001353  91.0347 269.0797 15.06389859245988",
    "COMMENT": "Grouped by shell and plane from TLE"
  },
  {
    "OBJECT_NAME": "STARLINK-2712",
    "OBJECT_ID": "21044AN",
    "EPOCH": "2025-11-11T04:42:16.516800",
    "MEAN_MOTION": 15.06395207,
    "ECCENTRICITY": 0.0001576,
    "INCLINATION": 53.0549,
    "RA_OF_ASC_NODE": 283.6743,
    "ARG_OF_PERICENTER": 94.7662,
    "MEAN_ANOMALY": 265.3507,
    "EPHEMERIS_TYPE": 0,
    "CLASSIFICATION_TYPE": "U",
    "NORAD_CAT_ID": 48674,
    "ELEMENT_SET_NO": 999,
    "REV_AT_EPOCH": 24598,
    "BSTAR": 7.2149e-05,
    "MEAN_MOTION_DOT": 7.93e-06,
    "MEAN_MOTION_DDOT": 0.0,
    "TLE_LINE1": "1 48674U 21044AN  25315.19602450  .00000793  00000+0  72149-4 0  9998",
    "TLE_LINE2": "2 48674  53.0549 283.6743 0001576  94.7662 265.3507 15.06395207245987",
    "COMMENT": "Grouped by shell and plane from TLE"
  },
  {
    "OBJECT_NAME": "STARLINK-2746",
    "OBJECT_ID": "21044AQ",
    "EPOCH": "2025-11-11T04:15:43.871040",
    "MEAN_MOTION": 15.06386234,
    "ECCENTRICITY": 0.0001388,
    "INCLINATION": 53.0556,
    "RA_OF_ASC_NODE": 283.6372,
    "ARG_OF_PERICENTER": 85.7154,
    "MEAN_ANOMALY": 274.3993,
    "EPHEMERIS_TYPE": 0,
    "CLASSIFICATION_TYPE": "U",
    "NORAD_CAT_ID": 48676,
    "ELEMENT_SET_NO": 999,
    "REV_AT_EPOCH": 24598,
    "BSTAR": 8.8538e-05,
    "MEAN_MOTION_DOT": 1.037e-05,
    "MEAN_MOTION_DDOT": 0.0,
    "TLE_LINE1": "1 48676U 21044AQ  25315.17759110  .00001037  00000+0  88538-4 0  9995",
    "TLE_LINE2": "2 48676  53.0556 283.6372 0001388  85.7154 274.3993 15.06386234245981",
    "COMMENT": "Grouped by shell and plane from TLE"
  },
  {
    "OBJECT_NAME": "STARLINK-2615",
    "OBJECT_ID": "21044AS",
    "EPOCH": "2025-11-11T05:40:39.063936",
    "MEAN_MOTION": 15.06387259,
    "ECCENTRICITY": 0.0001677,
    "INCLINATION": 53.0559,
    "RA_OF_ASC_NODE": 283.3727,
    "ARG_OF_PERICENTER": 89.498,
    "MEAN_ANOMALY": 270.6201,
    "EPHEMERIS_TYPE": 0,
    "CLASSIFICATION_TYPE": "U",
    "NORAD_CAT_ID": 48678,
    "ELEMENT_SET_NO": 999,
    "REV_AT_EPOCH": 24599,
    "BSTAR": 4.3493e-05,
    "MEAN_MOTION_DOT": 3.66e-06,
    "MEAN_MOTION_DDOT": 0.0,
    "TLE_LINE1": "1 48678U 21044AS  25315.23656324  .00000366  00000+0  43493-4 0  9992",
    "TLE_LINE2": "2 48678  53.0559 283.3727 0001677  89.4980 270.6201 15.06387259245996",
    "COMMENT": "Grouped by shell and plane from TLE"
  },
  {
    "OBJECT_NAME": "STARLINK-2648",
    "OBJECT_ID": "21044AT",
    "EPOCH": "2025-11-11T07:10:52.761792",
    "MEAN_MOTION": 15.06390757,
    "ECCENTRICITY": 0.0001456,
    "INCLINATION": 53.0546,
    "RA_OF_ASC_NODE": 283.0904,
    "ARG_OF_PERICENTER": 85.465,
    "MEAN_ANOMALY": 274.6506,
    "EPHEMERIS_TYPE": 0,
    "CLASSIFICATION_TYPE": "U",
    "NORAD_CAT_ID": 48679,
    "ELEMENT_SET_NO": 999,
    "REV_AT_EPOCH": 24600,
    "BSTAR": 7.628000000000001e-05,
    "MEAN_MOTION_DOT": 8.55e-06,
    "MEAN_MOTION_DDOT": 0.0,
    "TLE_LINE1": "1 48679U 21044AT  25315.29922178  .00000855  00000+0  76280-4 0  9995",
    "TLE_LINE2": "2 48679  53.0546 283.0904 0001456  85.4650 274.6506 15.06390757246004",
    "COMMENT": "Grouped by shell and plane from TLE"
  },
  {
    "OBJECT_NAME": "STARLINK-3761",
    "OBJECT_ID": "22041B",
    "EPOCH": "2025-11-11T06:35:31.489728",
    "MEAN_MOTION": 15.08840015,
    "ECCENTRICITY": 0.0001398,
    "INCLINATION": 53.218,
    "RA_OF_ASC_NODE": 280.6565,
    "ARG_OF_PERICENTER": 85.7387,
    "MEAN_ANOMALY": 274.3765,
    "EPHEMERIS_TYPE": 0,
    "CLASSIFICATION_TYPE": "U",
    "NORAD_CAT_ID": 52262,
    "ELEMENT_SET_NO": 999,
    "REV_AT_EPOCH": 19648,
    "BSTAR": 4.0769e-05,
    "MEAN_MOTION_DOT": 3.61e-06,
    "MEAN_MOTION_DDOT": 0.0,
    "TLE_LINE1": "1 52262U 22041B   25315.27467002  .00000361  00000+0  40769-4 0  9999",
    "TLE_LINE2": "2 52262  53.2180 280.6565 0001398  85.7387 274.3765 15.08840015196483",
    "COMMENT": "Grouped by shell and plane from TLE"
  },
  {
    "OBJECT_NAME": "STARLINK-3786",
    "OBJECT_ID": "22041C",
    "EPOCH": "2025-11-11T06:40:50.413728",
    "MEAN_MOTION": 15.08835498,
    "ECCENTRICITY": 0.0001427,
    "INCLINATION": 53.219,
    "RA_OF_ASC_NODE": 280.6899,
    "ARG_OF_PERICENTER": 94.6842,
    "MEAN_ANOMALY": 265.4313,
    "EPHEMERIS_TYPE": 0,
    "CLASSIFICATION_TYPE": "U",
    "NORAD_CAT_ID": 52263,
    "ELEMENT_SET_NO": 999,
    "REV_AT_EPOCH": 19648,
    "BSTAR": 0.0001565,
    "MEAN_MOTION_DOT": 2.203e-05,
    "MEAN_MOTION_DDOT": 0.0,
    "TLE_LINE1": "1 52263U 22041C   25315.27836127  .00002203  00000+0  15650-3 0  9995",
    "TLE_LINE2": "2 52263  53.2190 280.6899 0001427  94.6842 265.4313 15.08835498196482",
    "COMMENT": "Grouped by shell and plane from TLE"
  },
  {
    "OBJECT_NAME": "STARLINK-3795",
    "OBJECT_ID": "22041D",
    "EPOCH": "2025-11-11T06:30:14.172768",
    "MEAN_MOTION": 15.08840908,
    "ECCENTRICITY": 0.0001227,
    "INCLINATION": 53.217,
    "RA_OF_ASC_NODE": 280.7209,
    "ARG_OF_PERICENTER": 85.3532,
    "MEAN_ANOMALY": 274.76,
    "EPHEMERIS_TYPE": 0,
    "CLASSIFICATION_TYPE": "U",
    "NORAD_CAT_ID": 52264,
    "ELEMENT_SET_NO": 999,
    "REV_AT_EPOCH": 19648,
    "BSTAR": 4.2289e-05,
    "MEAN_MOTION_DOT": 3.85e-06,
    "MEAN_MOTION_DDOT": 0.0,
    "TLE_LINE1": "1 52264U 22041D   25315.27099737  .00000385  00000+0  42289-4 0  9992",
    "TLE_LINE2": "2 52264  53.2170 280.7209 0001227  85.3532 274.7600 15.08840908196482",
    "COMMENT": "Grouped by shell and plane from TLE"
  },
  {
    "OBJECT_NAME": "STARLINK-3740",
    "OBJECT_ID": "22041E",
    "EPOCH": "2025-11-11T06:24:56.197440",
    "MEAN_MOTION": 15.08843432,
    "ECCENTRICITY": 0.0001509,
    "INCLINATION": 53.2176,
    "RA_OF_ASC_NODE": 280.7367,
    "ARG_OF_PERICENTER": 92.802,
    "MEAN_ANOMALY": 267.3145,
    "EPHEMERIS_TYPE": 0,
    "CLASSIFICATION_TYPE": "U",
    "NORAD_CAT_ID": 52265,
    "ELEMENT_SET_NO": 999,
    "REV_AT_EPOCH": 19648,
    "BSTAR": 6.9108e-05,
    "MEAN_MOTION_DOT": 8.12e-06,
    "MEAN_MOTION_DDOT": 0.0,
    "TLE_LINE1": "1 52265U 22041E   25315.26731710  .00000812  00000+0  69108-4 0  9990",
    "TLE_LINE2": "2 52265  53.2176 280.7367 0001509  92.8020 267.3145 15.08843432196489",
    "COMMENT": "Grouped by shell and plane from TLE"
  },
  {
    "OBJECT_NAME": "STARLINK-3739",
    "OBJECT_ID": "22041F",
    "EPOCH": "2025-11-11T03:08:51.783360",
    "MEAN_MOTION": 15.0884426,
    "ECCENTRICITY": 0.0001549,
    "INCLINATION": 53.2172,
    "RA_OF_ASC_NODE": 281.3494,
    "ARG_OF_PERICENTER": 91.7076,
    "MEAN_ANOMALY": 268.4093,
    "EPHEMERIS_TYPE": 0,
    "CLASSIFICATION_TYPE": "U",
    "NORAD_CAT_ID": 52266,
    "ELEMENT_SET_NO": 999,
    "REV_AT_EPOCH": 19646,
    "BSTAR": 8.612300000000002e-05,
    "MEAN_MOTION_DOT": 1.083e-05,
    "MEAN_MOTION_DDOT": 0.0,
    "TLE_LINE1": "1 52266U 22041F   25315.13115490  .00001083  00000+0  86123-4 0  9995",
    "TLE_LINE2": "2 52266  53.2172 281.3494 0001549  91.7076 268.4093 15.08844260196469",
    "COMMENT": "Grouped by shell and plane from TLE"
  },
  {
    "OBJECT_NAME": "STARLINK-3748",
    "OBJECT_ID": "22041G",
    "EPOCH": "2025-11-11T04:38:57.047712",
    "MEAN_MOTION": 15.08837008,
    "ECCENTRICITY": 0.0001304,
    "INCLINATION": 53.2166,
    "RA_OF_ASC_NODE": 281.0731,
    "ARG_OF_PERICENTER": 113.7713,
    "MEAN_ANOMALY": 246.3416,
    "EPHEMERIS_TYPE": 0,
    "CLASSIFICATION_TYPE": "U",
    "NORAD_CAT_ID": 52267,
    "ELEMENT_SET_NO": 999,
    "REV_AT_EPOCH": 19647,
    "BSTAR": 2.4754e-05,
    "MEAN_MOTION_DOT": 1.06e-06,
    "MEAN_MOTION_DDOT": 0.0,
    "TLE_LINE1": "1 52267U 22041G   25315.19371583  .00000106  00000+0  24754-4 0  9996",
    "TLE_LINE2": "2 52267  53.2166 281.0731 0001304 113.7713 246.3416 15.08837008196473",
    "COMMENT": "Grouped by shell and plane from TLE"
  },
  {
    "OBJECT_NAME": "STARLINK-3746",
    "OBJECT_ID": "22041H",
    "EPOCH": "2025-11-11T04:12:26.125632",
    "MEAN_MOTION": 15.08844216,
    "ECCENTRICITY": 0.0001429,
    "INCLINATION": 53.217,
    "RA_OF_ASC_NODE": 281.0761,
    "ARG_OF_PERICENTER": 93.4687,
    "MEAN_ANOMALY": 266.6469,
    "EPHEMERIS_TYPE": 0,
    "CLASSIFICATION_TYPE": "U",
    "NORAD_CAT_ID": 52268,
    "ELEMENT_SET_NO": 999,
    "REV_AT_EPOCH": 19647,
    "BSTAR": 8.954299999999999e-05,
    "MEAN_MOTION_DOT": 1.138e-05,
    "MEAN_MOTION_DDOT": 0.0,
    "TLE_LINE1": "1 52268U 22041H   25315.17530238  .00001138  00000+0  89543-4 0  9992",
    "TLE_LINE2": "2 52268  53.2170 281.0761 0001429  93.4687 266.6469 15.08844216196476",
    "COMMENT": "Grouped by shell and plane from TLE"
  }
]